NORAD_CAT_ID,OBJECT_NAME,OBJECT_TYPE,EPOCH,MEAN_MOTION,ECCENTRICITY,INCLINATION,RA_OF_ASC_NODE,ARG_OF_PERICENTER,MEAN_ANOMALY,BSTAR,MEAN_MOTION_DOT,MEAN_MOTION_DDOT,TLE_LINE0,TLE_LINE1,TLE_LINE2,SEMIMAJOR_AXIS,PERIOD,APOGEE,PERIGEE,DECAYED
55391.0,STARLINK-5077,PAYLOAD,2024-01-17 21:48:58,14.97518293,0.000263,69.9989,234.7402,270.7003,89.3854,2.8864e-05,2.45e-06,0.0,0 STARLINK-5077,1 55391U 23014A   24017.90900602  .00000245  00000-0  28864-4 0  9996,2 55391  69.9989 234.7402 0002630 270.7003  89.3854 14.97518293 54978,6952.704,96.159,576.398,572.741,0.0
55391.0,STARLINK-5077,PAYLOAD,2024-01-18 01:01:20,14.97518824,0.0002619,69.9989,234.404,270.8008,89.285,3.2428e-05,2.87e-06,0.0,0 STARLINK-5077,1 55391U 23014A   24018.04259780  .00000287  00000-0  32428-4 0  9993,2 55391  69.9989 234.4040 0002619 270.8008  89.2850 14.97518824 54993,6952.703,96.159,576.388,572.747,0.0
55391.0,STARLINK-5077,PAYLOAD,2024-01-18 20:15:34,14.97525577,0.0002622,69.9988,232.3858,264.9035,95.1825,-4.4214e-06,-1.44e-06,0.0,0 STARLINK-5077,1 55391U 23014A   24018.84414552 -.00000144  00000-0 -44214-5 0  9992,2 55391  69.9988 232.3858 0002622 264.9035  95.1825 14.97525577 54175,6952.682,96.159,576.37,572.724,0.0
55391.0,STARLINK-5077,PAYLOAD,2024-01-18 21:51:45,14.97526012,0.0002613,69.9988,232.2177,264.8848,95.2012,1.2593e-06,-7.8e-07,0.0,0 STARLINK-5077,1 55391U 23014A   24018.91094089 -.00000078  00000-0  12593-5 0  9999,2 55391  69.9988 232.2177 0002613 264.8848  95.2012 14.97526012 55129,6952.68,96.159,576.362,572.729,0.0
55391.0,STARLINK-5077,PAYLOAD,2024-01-19 01:04:07,14.97525912,0.0002611,69.9989,231.8814,265.5553,94.5308,3.0553e-08,-9.2e-07,0.0,0 STARLINK-5077,1 55391U 23014A   24019.04453269 -.00000092  00000-0  30553-7 0  9997,2 55391  69.9989 231.8814 0002611 265.5553  94.5308 14.97525912 55142,6952.681,96.159,576.361,572.73,0.0
55391.0,STARLINK-5077,PAYLOAD,2024-01-19 21:54:32,14.97521442,0.0002658,69.9986,229.6944,266.4024,93.6831,3.4102e-05,3.06e-06,0.0,0 STARLINK-5077,1 55391U 23014A   24019.91288180  .00000306  00000-0  34102-4 0  9999,2 55391  69.9986 229.6944 0002658 266.4024  93.6831 14.97521442 55271,6952.694,96.159,576.407,572.711,0.0
55391.0,STARLINK-5077,PAYLOAD,2024-01-19 23:30:44,14.97521887,0.0002693,69.9985,229.526,267.4634,92.6217,3.5504e-05,3.23e-06,0.0,0 STARLINK-5077,1 55391U 23014A   24019.97967749  .00000323  00000-0  35504-4 0  9996,2 55391  69.9985 229.5260 0002693 267.4634  92.6217 14.97521887 54344,6952.693,96.159,576.43,572.686,0.0
55391.0,STARLINK-5077,PAYLOAD,2024-01-20 13:56:24,14.97524905,0.0002711,69.9983,228.012,268.0558,92.029,1.5088e-05,8.4e-07,0.0,0 STARLINK-5077,1 55391U 23014A   24020.58083988  .00000084  00000-0  15088-4 0  9998,2 55391  69.9983 228.0120 0002711 268.0558  92.0290 14.97524905 55377,6952.684,96.159,576.434,572.664,0.0
55391.0,STARLINK-5077,PAYLOAD,2024-01-20 21:57:20,14.97525269,0.0002722,69.9983,227.1709,267.9151,92.1695,1.7987e-05,1.18e-06,0.0,0 STARLINK-5077,1 55391U 23014A   24020.91481890  .00000118  00000-0  17987-4 0  9997,2 55391  69.9983 227.1709 0002722 267.9151  92.1695 14.97525269 55429,6952.683,96.159,576.44,572.655,0.0
55391.0,STARLINK-5077,PAYLOAD,2024-01-20 23:33:31,14.97525782,0.0002736,69.9983,227.0026,268.622,91.4625,2.2799e-05,1.74e-06,0.0,0 STARLINK-5077,1 55391U 23014A   24020.98161434  .00000174  00000-0  22799-4 0  9992,2 55391  69.9983 227.0026 0002736 268.6220  91.4625 14.97525782 54491,6952.681,96.159,576.448,572.644,0.0
55391.0,STARLINK-5077,PAYLOAD,2024-01-21 22:00:08,14.97521871,0.0002681,69.9986,224.6478,271.4575,88.6276,1.5767e-05,9.2e-07,0.0,0 STARLINK-5077,1 55391U 23014A   24021.91676074  .00000092  00000-0  15767-4 0  9993,2 55391  69.9986 224.6478 0002681 271.4575  88.6276 14.97521871 55577,6952.693,96.159,576.422,572.694,0.0
55391.0,STARLINK-5077,PAYLOAD,2024-01-21 23:36:19,14.97522073,0.000268,69.9987,224.4796,271.4297,88.6555,1.7596e-05,1.13e-06,0.0,0 STARLINK-5077,1 55391U 23014A   24021.98355656  .00000113  00000-0  17596-4 0  9996,2 55391  69.9987 224.4796 0002680 271.4297  88.6555 14.97522073 54641,6952.692,96.159,576.421,572.694,0.0
55391.0,STARLINK-5077,PAYLOAD,2024-01-22 22:02:55,14.97523717,0.0002659,69.9988,222.125,271.9733,88.1121,2.01e-05,1.43e-06,0.0,0 STARLINK-5077,1 55391U 23014A   24022.91869867  .00000143  00000-0  20100-4 0  9992,2 55391  69.9988 222.1250 0002659 271.9733  88.1121 14.97523717 55728,6952.687,96.159,576.401,572.704,0.0
55391.0,STARLINK-5077,PAYLOAD,2024-01-23 15:40:56,14.97545934,0.0003465,69.9968,220.2726,273.4528,86.6234,0.00021057,2.371e-05,0.0,0 STARLINK-5077,1 55391U 23014A   24023.65342682  .00002371  00000-0  21057-3 0  9991,2 55391  69.9968 220.2726 0003465 273.4528  86.6234 14.97545934 54898,6952.619,96.157,576.893,572.075,0.0
55391.0,STARLINK-5077,PAYLOAD,2024-01-23 22:05:42,14.97520261,0.0003153,69.9988,219.6018,284.6575,75.4234,-3.3985e-05,-4.89e-06,0.0,0 STARLINK-5077,1 55391U 23014A   24023.92063258 -.00000489  00000-0 -33985-4 0  9994,2 55391  69.9988 219.6018 0003153 284.6575  75.4234 14.97520261 55877,6952.698,96.159,576.755,572.371,0.0
55391.0,STARLINK-5077,PAYLOAD,2024-01-24 14:07:35,14.97520737,0.0004131,69.9967,217.9146,286.2345,73.8359,-0.00027462,-3.3e-05,0.0,0 STARLINK-5077,1 55391U 23014A   24024.58860005 -.00003300  00000-0 -27462-3 0  9999,2 55391  69.9967 217.9146 0004131 286.2345  73.8359 14.97520737 55976,6952.697,96.159,577.434,571.689,0.0
55391.0,STARLINK-5077,PAYLOAD,2024-01-24 22:08:30,14.97523308,0.0003619,69.9978,217.0772,280.122,79.953,-6.4201e-05,-8.43e-06,0.0,0 STARLINK-5077,1 55391U 23014A   24024.92257164 -.00000843  00000-0 -64201-4 0  9995,2 55391  69.9978 217.0772 0003619 280.1220  79.9530 14.97523308 56021,6952.689,96.159,577.07,572.037,0.0
55391.0,STARLINK-5077,PAYLOAD,2024-01-25 14:10:22,14.9751179,0.0003099,69.9994,215.3942,271.1357,88.9446,-9.7043e-06,-2.06e-06,0.0,0 STARLINK-5077,1 55391U 23014A   24025.59053502 -.00000206  00000-0 -97043-5 0  9993,2 55391  69.9994 215.3942 0003099 271.1357  88.9446 14.97511790 56121,6952.724,96.16,576.744,572.435,0.0
55391.0,STARLINK-5077,PAYLOAD,2024-01-25 20:35:07,14.97511019,0.0003101,69.9994,214.7225,270.097,89.9833,-1.908e-05,-3.15e-06,0.0,0 STARLINK-5077,1 55391U 23014A   24025.85772168 -.00000315  00000-0 -19080-4 0  9993,2 55391  69.9994 214.7225 0003101 270.0970  89.9833 14.97511019 55226,6952.727,96.16,576.748,572.436,0.0
55391.0,STARLINK-5077,PAYLOAD,2024-01-25 22:11:18,14.97511342,0.0003089,69.9995,214.5545,269.692,90.3885,-1.5326e-05,-2.71e-06,0.0,0 STARLINK-5077,1 55391U 23014A   24025.92451778 -.00000271  00000-0 -15326-4 0  9992,2 55391  69.9995 214.5545 0003089 269.6920  90.3885 14.97511342 56171,6952.726,96.16,576.738,572.443,0.0
55391.0,STARLINK-5077,PAYLOAD,2024-01-26 14:13:10,14.97513106,0.0003229,69.9989,212.8733,269.5719,90.5069,3.6706e-05,3.37e-06,0.0,0 STARLINK-5077,1 55391U 23014A   24026.59247967  .00000337  00000-0  36706-4 0  9995,2 55391  69.9989 212.8733 0003229 269.5719  90.5069 14.97513106 56272,6952.72,96.159,576.83,572.34,0.0
55391.0,STARLINK-5077,PAYLOAD,2024-01-26 22:14:06,14.97515284,0.0003201,69.9992,212.0328,269.5958,90.4834,6.0157e-05,6.11e-06,0.0,0 STARLINK-5077,1 55391U 23014A   24026.92645958  .00000611  00000-0  60157-4 0  9996,2 55391  69.9992 212.0328 0003201 269.5958  90.4834 14.97515284 55382,6952.713,96.159,576.804,572.353,0.0
55391.0,STARLINK-5077,PAYLOAD,2024-01-27 14:15:57,14.97518484,0.0003301,69.9992,210.351,271.2648,88.8133,8.592e-05,9.12e-06,0.0,0 STARLINK-5077,1 55391U 23014A   24027.59441955  .00000912  00000-0  85920-4 0  9990,2 55391  69.9992 210.3510 0003301 271.2648  88.8133 14.97518484 56427,6952.704,96.159,576.864,572.273,0.0
55391.0,STARLINK-5077,PAYLOAD,2024-01-27 22:16:53,14.97520798,0.000325,69.9994,209.5098,271.4243,88.6544,0.00010765,1.166e-05,0.0,0 STARLINK-5077,1 55391U 23014A   24027.92839799  .00001166  00000-0  10765-3 0  9990,2 55391  69.9994 209.5098 0003250 271.4243  88.6544 14.97520798 56476,6952.696,96.159,576.821,572.302,0.0
55391.0,STARLINK-5077,PAYLOAD,2024-01-28 14:18:45,14.9752561,0.0003279,69.9994,207.8279,273.9562,86.1222,8.9556e-05,9.54e-06,0.0,0 STARLINK-5077,1 55391U 23014A   24028.59635539  .00000954  00000-0  89556-4 0  9999,2 55391  69.9994 207.8279 0003279 273.9562  86.1222 14.97525610 56575,6952.682,96.159,576.826,572.267,0.0
55391.0,STARLINK-5077,PAYLOAD,2024-01-28 20:43:29,14.97527439,0.0003235,69.9994,207.1551,272.7083,87.3705,0.00010554,1.141e-05,0.0,0 STARLINK-5077,1 55391U 23014A   24028.86353702  .00001141  00000-0  10554-3 0  9998,2 55391  69.9994 207.1551 0003235 272.7083  87.3705 14.97527439 56613,6952.676,96.159,576.79,572.292,0.0
55391.0,STARLINK-5077,PAYLOAD,2024-01-29 22:22:28,14.97523702,0.0003152,69.9996,204.4641,271.1594,88.9203,-8.6372e-06,-1.93e-06,0.0,0 STARLINK-5077,1 55391U 23014A   24029.93227584 -.00000193  00000-0 -86372-5 0  9996,2 55391  69.9996 204.4641 0003152 271.1594  88.9203 14.97523702 55835,6952.687,96.159,576.744,572.361,0.0
55391.0,STARLINK-5077,PAYLOAD,2024-01-30 14:24:20,14.97524424,0.0002942,69.9999,202.7826,266.799,93.2833,-3.0404e-05,-4.48e-06,0.0,0 STARLINK-5077,1 55391U 23014A   24030.60023475 -.00000448  00000-0 -30404-4 0  9992,2 55391  69.9999 202.7826 0002942 266.7990  93.2833 14.97524424 56875,6952.685,96.159,576.596,572.505,0.0
55391.0,STARLINK-5077,PAYLOAD,2024-01-30 20:49:04,14.97525278,0.00031,69.9996,202.1094,270.4959,89.5844,-3.119e-05,-4.57e-06,0.0,0 STARLINK-5077,1 55391U 23014A   24030.86741773 -.00000457  00000-0 -31190-4 0  9991,2 55391  69.9996 202.1094 0003100 270.4959  89.5844 14.97525278 56910,6952.683,96.159,576.703,572.392,0.0
55391.0,STARLINK-5077,PAYLOAD,2024-01-31 11:14:45,14.97520827,0.0003102,69.9996,200.5956,270.7736,89.3067,1.9328e-05,1.34e-06,0.0,0 STARLINK-5077,1 55391U 23014A   24031.46858239  .00000134  00000-0  19328-4 0  9993,2 55391  69.9996 200.5956 0003102 270.7736  89.3067 14.97520827 56063,6952.696,96.159,576.718,572.405,0.0
